NORAD_CAT_ID,OBJECT_NAME,OBJECT_TYPE,EPOCH,MEAN_MOTION,ECCENTRICITY,INCLINATION,RA_OF_ASC_NODE,ARG_OF_PERICENTER,MEAN_ANOMALY,BSTAR,MEAN_MOTION_DOT,MEAN_MOTION_DDOT,TLE_LINE0,TLE_LINE1,TLE_LINE2,SEMIMAJOR_AXIS,PERIOD,APOGEE,PERIGEE,DECAYED
53014.0,STARLINK-4183,PAYLOAD,2022-12-30 03:33:41,15.08835878,0.0002154,53.2147,276.4338,47.5411,312.5763,0.00086323,0.00013476,0.0,0 STARLINK-4183,1 53014U 22076AE  22364.14840211  .00013476  00000-0  86323-3 0  9994,2 53014  53.2147 276.4338 0002154  47.5411 312.5763 15.08835878 27496,6917.893,95.438,541.248,538.268,0.0
53014.0,STARLINK-4183,PAYLOAD,2022-12-30 11:30:37,15.08853904,0.000207,53.2146,274.9466,47.1283,312.9883,0.0014184,0.00022367,0.0,0 STARLINK-4183,1 53014U 22076AE  22364.47960185  .00022367  00000-0  14184-2 0  9997,2 53014  53.2146 274.9466 0002070  47.1283 312.9883 15.08853904 27071,6917.8380000000025,95.437,541.135,538.271,0.0
53014.0,STARLINK-4183,PAYLOAD,2022-12-30 17:52:09,15.08871875,0.0002148,53.2144,273.7573,47.6712,312.4462,0.0016432999999999,0.00025985,0.0,0 STARLINK-4183,1 53014U 22076AE  22364.74455714  .00025985  00000-0  16433-2 0  9992,2 53014  53.2144 273.7573 0002148  47.6712 312.4462 15.08871875 27584,6917.783,95.436,541.134,538.1619999999998,0.0
53014.0,STARLINK-4183,PAYLOAD,2022-12-31 11:21:22,15.08883028,0.000224,53.2146,270.486,46.6592,313.4587,0.00090631,0.00014182,0.0,0 STARLINK-4183,1 53014U 22076AE  22365.47318116  .00014182  00000-0  90631-3 0  9997,2 53014  53.2146 270.4860 0002240  46.6592 313.4587 15.08883028 27691,6917.749,95.435,541.163,538.064,0.0
53014.0,STARLINK-4183,PAYLOAD,2022-12-31 17:42:55,15.08878196,0.000309,53.2143,269.2967,59.2196,300.91,0.0010641,0.00016706,0.0,0 STARLINK-4183,1 53014U 22076AE  22365.73814035  .00016706  00000-0  10641-2 0  9993,2 53014  53.2143 269.2967 0003090  59.2196 300.9100 15.08878196 27261,6917.764,95.435,541.766,537.491,0.0
53014.0,STARLINK-4183,PAYLOAD,2023-01-01 03:15:14,15.08839015,0.0001981,53.2147,267.5128,37.79,322.3231,0.00057148,8.819e-05,0.0,0 STARLINK-4183,1 53014U 22076AE  23001.13558132  .00008819  00000-0  57148-3 0  9998,2 53014  53.2147 267.5128 0001981  37.7900 322.3231 15.08839015 27794,6917.8830000000025,95.438,541.119,538.378,0.0
53014.0,STARLINK-4183,PAYLOAD,2023-01-01 11:12:09,15.08840976,0.0001996999999999,53.2148,266.026,38.2042,321.9092,0.0012557,0.00019754,0.0,0 STARLINK-4183,1 53014U 22076AE  23001.46678201  .00019754  00000-0  12557-2 0  9998,2 53014  53.2148 266.0260 0001997  38.2042 321.9092 15.08840976 27378,6917.877,95.437,541.124,538.361,0.0
53014.0,STARLINK-4183,PAYLOAD,2023-01-01 17:33:43,15.08813467,0.0002088,53.2154,264.8368,39.5314,320.583,0.00093048,0.00014541,0.0,0 STARLINK-4183,1 53014U 22076AE  23001.73175786  .00014541  00000-0  93048-3 0  9992,2 53014  53.2154 264.8368 0002088  39.5314 320.5830 15.08813467 27413,6917.9609999999975,95.439,541.271,538.382,0.0
53014.0,STARLINK-4183,PAYLOAD,2023-01-01 23:55:16,15.0881202,0.0002006999999999,53.2161,263.6488,30.9397,329.1713,0.0011214999999999,0.00017592,0.0,0 STARLINK-4183,1 53014U 22076AE  23001.99672365  .00017592  00000-0  11215-2 0  9999,2 53014  53.2161 263.6488 0002007  30.9397 329.1713 15.08812020 27923,6917.965999999999,95.439,541.219,538.442,0.0
53014.0,STARLINK-4183,PAYLOAD,2023-01-02 03:06:03,15.08819064,0.0002123,53.2152,263.0525,40.009,320.1058,0.0011674,0.0001833,0.0,0 STARLINK-4183,1 53014U 22076AE  23002.12920520  .00018330  00000-0  11674-2 0  9994,2 53014  53.2152 263.0525 0002123  40.0090 320.1058 15.08819064 27478,6917.944,95.439,541.278,538.341,0.0
53014.0,STARLINK-4183,PAYLOAD,2023-01-03 02:56:50,15.08845873,0.0002048,53.2161,258.5908,40.3997,319.7147,0.00071522,0.00011115,0.0,0 STARLINK-4183,1 53014U 22076AE  23003.12280664  .00011115  00000-0  71522-3 0  9996,2 53014  53.2161 258.5908 0002048  40.3997 319.7147 15.08845873 28096,6917.861999999999,95.437,541.144,538.311,0.0
53014.0,STARLINK-4183,PAYLOAD,2023-01-03 22:01:28,15.08858492,0.0003243999999999,53.2156,255.022,54.5057,305.6238,0.00087971,0.00013748,0.0,0 STARLINK-4183,1 53014U 22076AE  23003.91768747  .00013748  00000-0  87971-3 0  9995,2 53014  53.2156 255.0220 0003244  54.5057 305.6238 15.08858492 28212,6917.824000000001,95.436,541.933,537.445,0.0
53014.0,STARLINK-4183,PAYLOAD,2023-01-04 23:27:38,15.08862578,0.0003298,53.2142,250.2628,66.8886,293.2454,0.0011405,0.00017922,0.0,0 STARLINK-4183,1 53014U 22076AE  23004.97752339  .00017922  00000-0  11405-2 0  9998,2 53014  53.2142 250.2628 0003298  66.8886 293.2454 15.08862578 28370,6917.811,95.436,541.9580000000002,537.395,0.0
53014.0,STARLINK-4183,PAYLOAD,2023-01-05 08:59:56,15.08860873,0.0001943,53.2139,248.4806,40.7804,319.3333,0.00091525,0.00014317,0.0,0 STARLINK-4183,1 53014U 22076AE  23005.37495845  .00014317  00000-0  91525-3 0  9996,2 53014  53.2139 248.4806 0001943  40.7804 319.3333 15.08860873 28438,6917.816999999999,95.436,541.026,538.337,0.0
53014.0,STARLINK-4183,PAYLOAD,2023-01-06 08:50:43,15.08833875,0.0002273,53.2138,244.0202,52.5391,307.5808,-0.00027015,-4.585e-05,0.0,0 STARLINK-4183,1 53014U 22076AE  23006.36855913 -.00004585  00000-0 -27015-3 0  9993,2 53014  53.2138 244.0202 0002273  52.5391 307.5808 15.08833875 28582,6917.899,95.438,541.337,538.192,0.0
53014.0,STARLINK-4183,PAYLOAD,2023-01-06 19:58:25,15.08834149,0.0001964,53.2133,241.9391,42.4348,317.6796,0.00017337,2.472e-05,0.0,0 STARLINK-4183,1 53014U 22076AE  23006.83224018  .00002472  00000-0  17337-3 0  9998,2 53014  53.2133 241.9391 0001964  42.4348 317.6796 15.08834149 28187,6917.898,95.438,541.122,538.405,0.0
53014.0,STARLINK-4183,PAYLOAD,2023-01-06 23:09:11,15.08836504,0.0001961,53.2134,241.3443,43.3285,316.7861,0.00039833,6.056e-05,0.0,0 STARLINK-4183,1 53014U 22076AE  23006.96472077  .00006056  00000-0  39833-3 0  9999,2 53014  53.2134 241.3443 0001961  43.3285 316.7861 15.08836504 28200,6917.891,95.438,541.113,538.399,0.0
53014.0,STARLINK-4183,PAYLOAD,2023-01-07 08:41:30,15.08841293,0.0002015,53.2131,239.56,43.1636,316.9514,0.0006492999999999,0.00010061,0.0,0 STARLINK-4183,1 53014U 22076AE  23007.36216205  .00010061  00000-0  64930-3 0  9990,2 53014  53.2131 239.5600 0002015  43.1636 316.9514 15.08841293 28736,6917.876,95.437,541.135,538.347,0.0
53014.0,STARLINK-4183,PAYLOAD,2023-01-07 18:13:50,15.08828503,0.0001924,53.2122,237.7757,46.7974,313.3178,9.5863e-05,1.237e-05,0.0,0 STARLINK-4183,1 53014U 22076AE  23007.75960660  .00001237  00000-0  95863-4 0  9999,2 53014  53.2122 237.7757 0001924  46.7974 313.3178 15.08828503 28793,6917.916,95.438,541.112,538.45,0.0
53014.0,STARLINK-4183,PAYLOAD,2023-01-08 08:32:18,15.08821729,0.0001945,53.213,235.0992,41.7673,318.3467,0.00022733,3.33e-05,0.0,0 STARLINK-4183,1 53014U 22076AE  23008.35577509  .00003330  00000-0  22733-3 0  9993,2 53014  53.2130 235.0992 0001945  41.7673 318.3467 15.08821729 28887,6917.936,95.439,541.1469999999998,538.456,0.0
53014.0,STARLINK-4183,PAYLOAD,2023-01-08 21:15:24,15.08836059,0.0002114,53.2134,232.7205,44.4497,315.6664,0.00026236,3.889e-05,0.0,0 STARLINK-4183,1 53014U 22076AE  23008.88569692  .00003889  00000-0  26236-3 0  9996,2 53014  53.2134 232.7205 0002114  44.4497 315.6664 15.08836059 28493,6917.892,95.438,541.22,538.295,0.0
53014.0,STARLINK-4183,PAYLOAD,2023-01-09 00:26:10,15.08839214,0.0002113,53.2136,232.1252,45.5684,314.5481,0.00029535,4.415e-05,0.0,0 STARLINK-4183,1 53014U 22076AE  23009.01817629  .00004415  00000-0  29535-3 0  9999,2 53014  53.2136 232.1252 0002113  45.5684 314.5481 15.08839214 28985,6917.883000000002,95.438,541.21,538.286,0.0
53014.0,STARLINK-4183,PAYLOAD,2023-01-09 08:23:05,15.08855963,0.0002113,53.2134,230.6391,44.3439,315.7722,0.00057308,8.848e-05,0.0,0 STARLINK-4183,1 53014U 22076AE  23009.34936952  .00008848  00000-0  57308-3 0  9999,2 53014  53.2134 230.6391 0002113  44.3439 315.7722 15.08855963 28569,6917.831999999999,95.437,541.158,538.235,0.0
53014.0,STARLINK-4183,PAYLOAD,2023-01-10 00:16:56,15.08848757,0.0003841,53.2132,227.6659,45.9749,314.1559,8.792299999999999e-05,1.111e-05,0.0,0 STARLINK-4183,1 53014U 22076AE  23010.01177043  .00001111  00000-0  87923-4 0  9996,2 53014  53.2132 227.6659 0003841  45.9749 314.1559 15.08848757 29138,6917.854,95.437,542.376,537.061,0.0
53014.0,STARLINK-4183,PAYLOAD,2023-01-10 09:49:14,15.08854555,0.0002243,53.2131,225.8805,45.5738,314.5438,2.4642e-05,1.04e-06,0.0,0 STARLINK-4183,1 53014U 22076AE  23010.40919924  .00000104  00000-0  24642-4 0  9991,2 53014  53.2131 225.8805 0002243  45.5738 314.5438 15.08854555 29198,6917.835999999998,95.437,541.253,538.149,0.0
53014.0,STARLINK-4183,PAYLOAD,2023-01-10 16:10:47,15.08858633,0.0002217,53.2136,224.6911,43.6889,316.4278,0.00018504,2.659e-05,0.0,0 STARLINK-4183,1 53014U 22076AE  23010.67415594  .00002659  00000-0  18504-3 0  9990,2 53014  53.2136 224.6911 0002217  43.6889 316.4278 15.08858633 28761,6917.823,95.436,541.222,538.155,0.0
53014.0,STARLINK-4183,PAYLOAD,2023-01-11 09:40:01,15.08849325,0.0002186,53.2134,221.4195,47.3447,312.7729,6.9801e-05,8.23e-06,0.0,0 STARLINK-4183,1 53014U 22076AE  23011.40279570  .00000823  00000-0  69801-4 0  9992,2 53014  53.2134 221.4195 0002186  47.3447 312.7729 15.08849325 29347,6917.852,95.437,541.229,538.205,0.0
53014.0,STARLINK-4183,PAYLOAD,2023-01-11 16:01:34,15.08836801,0.0001730999999999,53.215,220.2289,36.7564,323.3546,-0.00013566,-2.446e-05,0.0,0 STARLINK-4183,1 53014U 22076AE  23011.66775699 -.00002446  00000-0 -13566-3 0  9994,2 53014  53.2150 220.2289 0001731  36.7564 323.3546 15.08836801 29387,6917.89,95.438,540.953,538.558,0.0
53014.0,STARLINK-4183,PAYLOAD,2023-01-11 20:47:43,15.08832417,0.0002014,53.2146,219.337,38.7083,321.4053,-0.00015956,-2.826e-05,0.0,0 STARLINK-4183,1 53014U 22076AE  23011.86648130 -.00002826  00000-0 -15956-3 0  9992,2 53014  53.2146 219.3370 0002014  38.7083 321.4053 15.08832417 28947,6917.904,95.438,541.1619999999998,538.375,0.0
